[{"OBJECT_NAME":"STARLINK-2112","OBJECT_ID":"2021-005AU","EPOCH":"2026-03-09T22:08:53.724192","MEAN_MOTION":15.06402406,"ECCENTRICITY":0.00018142,"INCLINATION":53.0572,"RA_OF_ASC_NODE":30.5734,"ARG_OF_PERICENTER":98.0184,"MEAN_ANOMALY":262.1011,"EPHEMERIS_TYPE":0,"CLASSIFICATION_TYPE":"U","NORAD_CAT_ID":47391,"ELEMENT_SET_NO":999,"REV_AT_EPOCH":28349,"BSTAR":0.00010925329,"MEAN_MOTION_DOT":1.346e-5,"MEAN_MOTION_DDOT":0},{"OBJECT_NAME":"NOAA 16 DEB","OBJECT_ID":"2000-055NX","EPOCH":"2026-03-08T23:11:13.556832","MEAN_MOTION":15.01016664,"ECCENTRICITY":0.00157984,"INCLINATION":98.8636,"RA_OF_ASC_NODE":259.6913,"ARG_OF_PERICENTER":295.8562,"MEAN_ANOMALY":64.1029,"EPHEMERIS_TYPE":0,"CLASSIFICATION_TYPE":"U","NORAD_CAT_ID":41658,"ELEMENT_SET_NO":999,"REV_AT_EPOCH":9741,"BSTAR":0.010110988,"MEAN_MOTION_DOT":0.00131742,"MEAN_MOTION_DDOT":0}]
